[{"OBJECT_NAME":"STARLINK-34490","OBJECT_ID":"2025-133G","EPOCH":"2026-03-09T10:44:27.647808","MEAN_MOTION":15.30280782,"ECCENTRICITY":0.00015318,"INCLINATION":53.1602,"RA_OF_ASC_NODE":117.7617,"ARG_OF_PERICENTER":84.3428,"MEAN_ANOMALY":275.7747,"EPHEMERIS_TYPE":0,"CLASSIFICATION_TYPE":"U","NORAD_CAT_ID":64478,"ELEMENT_SET_NO":999,"REV_AT_EPOCH":4115,"BSTAR":0.0022966574,"MEAN_MOTION_DOT":0.00068461,"MEAN_MOTION_DDOT":0},{"OBJECT_NAME":"CZ-4C R\/B","OBJECT_ID":"2023-123B","EPOCH":"2026-03-09T21:44:40.426944","MEAN_MOTION":15.36684191,"ECCENTRICITY":0.00627803,"INCLINATION":97.9677,"RA_OF_ASC_NODE":50.672,"ARG_OF_PERICENTER":67.0775,"MEAN_ANOMALY":293.7077,"EPHEMERIS_TYPE":0,"CLASSIFICATION_TYPE":"U","NORAD_CAT_ID":57655,"ELEMENT_SET_NO":999,"REV_AT_EPOCH":14181,"BSTAR":0.00052203987,"MEAN_MOTION_DOT":0.00019917,"MEAN_MOTION_DDOT":0}]
